IRIDIUM 150             
1 43257U 18030J   24201.60248982  .00000358  00000+0  12073-3 0  9992
2 43257  86.3960 221.9740 0002406  84.6063 275.5407 14.34217119330176
IRIDIUM 143             
1 43258U 18030K   24201.58346329  .00000080  00000+0  21580-4 0  9990
2 43258  86.3965 222.0468 0002358  82.8800 277.2663 14.34217363330136
IRIDIUM 161             
1 43478U 18047C   24201.56208254  .00000283  00000+0  78127-4 0  9998
2 43478  86.4490  20.0058 0002097  84.1998 275.9442 14.43279581324513
IRIDIUM 152             
1 43479U 18047D   24201.55618141  .00000132  00000+0  39949-4 0  9990
2 43479  86.3964  19.8678 0002169  89.8225 270.3219 14.34218460322505
IRIDIUM 147             
1 43480U 18047E   24201.56252736  .00000230  00000+0  74990-4 0  9991
2 43480  86.3966  19.8579 0002129  92.3827 267.7613 14.34217698322490
IRIDIUM 110             
1 43481U 18047F   24201.56886779 -.00000023  00000+0 -15276-4 0  9996
2 43481  86.3966  19.9290 0002065 101.6434 258.4993 14.34215667322480
IRIDIUM 162             
1 43482U 18047G   24201.55586319  .00000297  00000+0  82342-4 0  9992
2 43482  86.4489  19.9080 0002275  89.6465 270.4996 14.43274932324503
IRIDIUM 160             
1 43569U 18061A   24201.86354517  .00000241  00000+0  78845-4 0  9993
2 43569  86.3995 348.1924 0001800  99.8963 260.2436 14.34218342313421
